{"type":"FeatureCollection","crs":{"type":"name","properties":{"name":"EPSG:4326"}},"features":[{"type":"Feature","geometry":{"type":"Point","coordinates":[-122.061277390617,37.6912809840355]},"properties":{"Name":"Castro Valley","Owner":"PG&E","Status":"Operational","Max_Voltag":230,"COUNTY":"Alameda County","CITY":"Unincorporated"}},{"type":"Feature","geometry":{"type":"Point","coordinates":[-122.116611213617,37.6250785877411]},"properties":{"Name":"Eastshore","Owner":"PG&E","Status":"Operational","Max_Voltag":230,"COUNTY":"Alameda County","CITY":"Hayward"}},{"type":"Feature","geometry":{"type":"Point","coordinates":[-121.733244468981,37.7008242331829]},"properties":{"Name":"Las Positas","Owner":"PG&E","Status":"Operational","Max_Voltag":230,"COUNTY":"Alameda County","CITY":"Livermore"}},{"type":"Feature","geometry":{"type":"Point","coordinates":[-121.986262422075,37.5008731153367]},"properties":{"Name":"Newark","Owner":"PG&E","Status":"Operational","Max_Voltag":230,"COUNTY":"Alameda County","CITY":"Fremont"}},{"type":"Feature","geometry":{"type":"Point","coordinates":[-122.137946150411,37.4929681238991]},"properties":{"Name":"Ravenswood","Owner":"PG&E","Status":"Operational","Max_Voltag":230,"COUNTY":"San Mateo County","CITY":"Menlo Park"}},{"type":"Feature","geometry":{"type":"Point","coordinates":[-121.564857867798,37.7123963929351]},"properties":{"Name":"Tesla","Owner":"PG&E","Status":"Operational","Max_Voltag":500,"COUNTY":"Alameda County","CITY":"Unincorporated"}},{"type":"Feature","geometry":{"type":"Point","coordinates":[-121.517661544292,39.4543430519995]},"properties":{"Name":"Palermo","Owner":"PG&E","Status":"Operational","Max_Voltag":230,"COUNTY":"Butte County","CITY":"Unincorporated"}},{"type":"Feature","geometry":{"type":"Point","coordinates":[-120.536221162007,37.9446465969776]},"properties":{"Name":"Melones","Owner":"WAPA","Status":"Operational","Max_Voltag":230,"COUNTY":"Calaveras County","CITY":"Unincorporated"}},{"type":"Feature","geometry":{"type":"Point","coordinates":[-121.781130841457,38.0118309807636]},"properties":{"Name":"GWF 3","Owner":"Other","Status":"Operational","Max_Voltag":230,"COUNTY":"Contra Costa County","CITY":"Antioch"}},{"type":"Feature","geometry":{"type":"Point","coordinates":[-121.782823097671,37.9995546787225]},"properties":{"Name":"Contra Costa","Owner":"PG&E","Status":"Operational","Max_Voltag":230,"COUNTY":"Contra Costa County","CITY":"Antioch"}},{"type":"Feature","geometry":{"type":"Point","coordinates":[-122.160831855168,37.847763929455]},"properties":{"Name":"Moraga","Owner":"PG&E","Status":"Operational","Max_Voltag":230,"COUNTY":"Contra Costa County","CITY":"Orinda"}},{"type":"Feature","geometry":{"type":"Point","coordinates":[-121.89679600313,38.036821997066]},"properties":{"Name":"Pittsburg","Owner":"PG&E","Status":"Operational","Max_Voltag":230,"COUNTY":"Contra Costa County","CITY":"Pittsburg"}},{"type":"Feature","geometry":{"type":"Point","coordinates":[-122.080323275438,37.8646542159616]},"properties":{"Name":"Rossmoor","Owner":"PG&E","Status":"Operational","Max_Voltag":230,"COUNTY":"Contra Costa County","CITY":"Walnut Creek"}},{"type":"Feature","geometry":{"type":"Point","coordinates":[-121.967662431316,37.7824159583187]},"properties":{"Name":"San Ramon Research Cntr.","Owner":"PG&E","Status":"Operational","Max_Voltag":230,"COUNTY":"Contra Costa County","CITY":"Danville"}},{"type":"Feature","geometry":{"type":"Point","coordinates":[-121.935909803139,37.7447257531966]},"properties":{"Name":"San Ramon","Owner":"PG&E","Status":"Operational","Max_Voltag":230,"COUNTY":"Contra Costa County","CITY":"San Ramon"}},{"type":"Feature","geometry":{"type":"Point","coordinates":[-122.208095069027,37.9054580482871]},"properties":{"Name":"Sobrante","Owner":"PG&E","Status":"Operational","Max_Voltag":230,"COUNTY":"Contra Costa County","CITY":"Orinda"}},{"type":"Feature","geometry":{"type":"Point","coordinates":[-122.061857033944,38.0196442043138]},"properties":{"Name":"Tidewater","Owner":"PG&E","Status":"Operational","Max_Voltag":230,"COUNTY":"Contra Costa County","CITY":"Unincorporated"}},{"type":"Feature","geometry":{"type":"Point","coordinates":[-120.442851457152,38.8634320313136]},"properties":{"Name":"Union Valley","Owner":"SMUD","Status":"Operational","Max_Voltag":230,"COUNTY":"El Dorado County","CITY":"Unincorporated"}},{"type":"Feature","geometry":{"type":"Point","coordinates":[-120.701828798806,36.71509335401]},"properties":{"Name":"Oxford","Owner":"PG&E","Status":"Operational","Max_Voltag":500,"COUNTY":"Fresno County","CITY":"Unincorporated"}},{"type":"Feature","geometry":{"type":"Point","coordinates":[-120.176198765979,36.5914234315459]},"properties":{"Name":"Helm","Owner":"PG&E","Status":"Operational","Max_Voltag":230,"COUNTY":"Fresno County","CITY":"Unincorporated"}},{"type":"Feature","geometry":{"type":"Point","coordinates":[-119.922134727431,36.8447178608251]},"properties":{"Name":"Herndon","Owner":"PG&E","Status":"Operational","Max_Voltag":230,"COUNTY":"Fresno County","CITY":"Fresno"}},{"type":"Feature","geometry":{"type":"Point","coordinates":[-119.882865023906,36.7056228914329]},"properties":{"Name":"Kearney (New)","Owner":"PG&E","Status":"Operational","Max_Voltag":230,"COUNTY":"Fresno County","CITY":"Unincorporated"}},{"type":"Feature","geometry":{"type":"Point","coordinates":[-119.639210634125,36.6108290061771]},"properties":{"Name":"McCall","Owner":"PG&E","Status":"Operational","Max_Voltag":230,"COUNTY":"Fresno County","CITY":"Unincorporated"}},{"type":"Feature","geometry":{"type":"Point","coordinates":[-119.988708369183,36.5933691606621]},"properties":{"Name":"Mc Mullin","Owner":"PG&E","Status":"Operational","Max_Voltag":230,"COUNTY":"Fresno County","CITY":"Unincorporated"}},{"type":"Feature","geometry":{"type":"Point","coordinates":[-120.581756064869,36.6535362515979]},"properties":{"Name":"Panoche","Owner":"PG&E","Status":"Operational","Max_Voltag":230,"COUNTY":"Fresno County","CITY":"Unincorporated"}},{"type":"Feature","geometry":{"type":"Point","coordinates":[-119.240367067885,37.2041785770498]},"properties":{"Name":"Camp 10","Owner":"SCE","Status":"Operational","Max_Voltag":230,"COUNTY":"Fresno County","CITY":"Unincorporated"}},{"type":"Feature","geometry":{"type":"Point","coordinates":[-119.24084637209,37.2054387385052]},"properties":{"Name":"Pitman","Owner":"SCE","Status":"Operational","Max_Voltag":230,"COUNTY":"Fresno County","CITY":"Unincorporated"}},{"type":"Feature","geometry":{"type":"Point","coordinates":[-122.142904054872,39.77791304421]},"properties":{"Name":"Glenn","Owner":"PG&E","Status":"Operational","Max_Voltag":230,"COUNTY":"Glenn County","CITY":"Unincorporated"}},{"type":"Feature","geometry":{"type":"Point","coordinates":[-122.263050854904,39.539511190988]},"properties":{"Name":"Logan Creek","Owner":"PG&E","Status":"Operational","Max_Voltag":230,"COUNTY":"Glenn County","CITY":"Unincorporated"}},{"type":"Feature","geometry":{"type":"Point","coordinates":[-121.641651016411,37.8011600008816]},"properties":{"Name":"Windmaster","Owner":"Other","Status":"Operational","Max_Voltag":230,"COUNTY":"Contra Costa County","CITY":"Unincorporated"}},{"type":"Feature","geometry":{"type":"Point","coordinates":[-115.537147103777,32.8023414622788]},"properties":{"Name":"El Centro","Owner":"IID","Status":"Operational","Max_Voltag":230,"COUNTY":"Imperial County","CITY":"El Centro"}},{"type":"Feature","geometry":{"type":"Point","coordinates":[-115.273711872525,32.7702930309543]},"properties":{"Name":"Highline","Owner":"IID","Status":"Operational","Max_Voltag":230,"COUNTY":"Imperial County","CITY":"Unincorporated"}},{"type":"Feature","geometry":{"type":"Point","coordinates":[-115.434474267075,33.1923626911182]},"properties":{"Name":"Midway","Owner":"IID","Status":"Operational","Max_Voltag":230,"COUNTY":"Imperial County","CITY":"Unincorporated"}},{"type":"Feature","geometry":{"type":"Point","coordinates":[-119.913603828725,35.7755223976458]},"properties":{"Name":"Arco","Owner":"PG&E","Status":"Operational","Max_Voltag":230,"COUNTY":"Kern County","CITY":"Unincorporated"}},{"type":"Feature","geometry":{"type":"Point","coordinates":[-119.004436030896,35.3872324715868]},"properties":{"Name":"Bakersfield","Owner":"PG&E","Status":"Operational","Max_Voltag":230,"COUNTY":"Kern County","CITY":"Bakersfield"}},{"type":"Feature","geometry":{"type":"Point","coordinates":[-119.067634257458,35.3170569232874]},"properties":{"Name":"Stockdale","Owner":"PG&E","Status":"Operational","Max_Voltag":230,"COUNTY":"Kern County","CITY":"Bakersfield"}},{"type":"Feature","geometry":{"type":"Point","coordinates":[-118.975964660092,35.0887527180734]},"properties":{"Name":"Wheeler Ridge","Owner":"PG&E","Status":"Operational","Max_Voltag":230,"COUNTY":"Kern County","CITY":"Unincorporated"}},{"type":"Feature","geometry":{"type":"Point","coordinates":[-118.488397949957,34.0682842810667]},"properties":{"Name":"Kenter Canyon","Owner":"LADWP","Status":"Operational","Max_Voltag":230,"COUNTY":"Los Angeles County","CITY":"Los Angeles"}},{"type":"Feature","geometry":{"type":"Point","coordinates":[-118.358753070187,34.1059757915152]},"properties":{"Name":"Nichols Canyon","Owner":"LADWP","Status":"Operational","Max_Voltag":230,"COUNTY":"Los Angeles County","CITY":"Los Angeles"}},{"type":"Feature","geometry":{"type":"Point","coordinates":[-118.478331482782,34.2806528291328]},"properties":{"Name":"Rinaldi","Owner":"LADWP","Status":"Operational","Max_Voltag":500,"COUNTY":"Los Angeles County","CITY":"Los Angeles"}},{"type":"Feature","geometry":{"type":"Point","coordinates":[-118.229889249505,34.0377301768362]},"properties":{"Name":"River","Owner":"LADWP","Status":"Operational","Max_Voltag":230,"COUNTY":"Los Angeles County","CITY":"Los Angeles"}},{"type":"Feature","geometry":{"type":"Point","coordinates":[-118.226119596976,34.0671022670307]},"properties":{"Name":"Station A (St. John)","Owner":"LADWP","Status":"Operational","Max_Voltag":230,"COUNTY":"Los Angeles County","CITY":"Los Angeles"}},{"type":"Feature","geometry":{"type":"Point","coordinates":[-118.255162011534,33.9482819868234]},"properties":{"Name":"Station B (Century)","Owner":"LADWP","Status":"Operational","Max_Voltag":287,"COUNTY":"Los Angeles County","CITY":"Los Angeles"}},{"type":"Feature","geometry":{"type":"Point","coordinates":[-118.359840522161,34.1762174039201]},"properties":{"Name":"Station E (Toluca)","Owner":"LADWP","Status":"Operational","Max_Voltag":500,"COUNTY":"Los Angeles County","CITY":"Los Angeles"}},{"type":"Feature","geometry":{"type":"Point","coordinates":[-116.115409788427,33.6728183499132]},"properties":{"Name":"Coachella Valley","Owner":"IID","Status":"Operational","Max_Voltag":230,"COUNTY":"Riverside County","CITY":"Coachella"}},{"type":"Feature","geometry":{"type":"Point","coordinates":[-115.626604435364,33.7047062245045]},"properties":{"Name":"Julian Hinds","Owner":"SCE","Status":"Operational","Max_Voltag":230,"COUNTY":"Riverside County","CITY":"Unincorporated"}},{"type":"Feature","geometry":{"type":"Point","coordinates":[-116.370110356117,33.8185023244728]},"properties":{"Name":"Mirage","Owner":"SCE","Status":"Operational","Max_Voltag":230,"COUNTY":"Riverside County","CITY":"Unincorporated"}},{"type":"Feature","geometry":{"type":"Point","coordinates":[-117.156113809569,33.7399944239829]},"properties":{"Name":"Valley","Owner":"SCE","Status":"Operational","Max_Voltag":500,"COUNTY":"Riverside County","CITY":"Menifee"}},{"type":"Feature","geometry":{"type":"Point","coordinates":[-118.20384035385,34.01543789673]},"properties":{"Name":"Station F (Velasco & Kinetic)","Owner":"LADWP","Status":"Operational","Max_Voltag":230,"COUNTY":"Los Angeles County","CITY":"Los Angeles"}},{"type":"Feature","geometry":{"type":"Point","coordinates":[-121.13675733248,38.6574875881553]},"properties":{"Name":"Gold Hill","Owner":"PG&E","Status":"Operational","Max_Voltag":230,"COUNTY":"Sacramento County","CITY":"Folsom"}},{"type":"Feature","geometry":{"type":"Point","coordinates":[-121.329090798501,38.6436446765932]},"properties":{"Name":"Carmichael","Owner":"SMUD","Status":"Operational","Max_Voltag":230,"COUNTY":"Sacramento County","CITY":"Unincorporated"}},{"type":"Feature","geometry":{"type":"Point","coordinates":[-121.346564006348,38.6934650046231]},"properties":{"Name":"Don Julio-Elkhorn","Owner":"SMUD","Status":"Operational","Max_Voltag":230,"COUNTY":"Sacramento County","CITY":"Unincorporated"}},{"type":"Feature","geometry":{"type":"Point","coordinates":[-121.346586009682,38.714567033723]},"properties":{"Name":"Don Julio-Lorac Vista","Owner":"SMUD","Status":"Operational","Max_Voltag":230,"COUNTY":"Sacramento County","CITY":"Unincorporated"}},{"type":"Feature","geometry":{"type":"Point","coordinates":[-121.353033659549,38.3727238612256]},"properties":{"Name":"Elk Grove","Owner":"SMUD","Status":"Operational","Max_Voltag":230,"COUNTY":"Sacramento County","CITY":"Elk Grove"}},{"type":"Feature","geometry":{"type":"Point","coordinates":[-121.478498852576,38.7138590105709]},"properties":{"Name":"Elverta","Owner":"WAPA","Status":"Operational","Max_Voltag":230,"COUNTY":"Sacramento County","CITY":"Unincorporated"}},{"type":"Feature","geometry":{"type":"Point","coordinates":[-121.347331262822,38.6935078265294]},"properties":{"Name":"Foothill","Owner":"SMUD","Status":"Operational","Max_Voltag":230,"COUNTY":"Sacramento County","CITY":"Unincorporated"}},{"type":"Feature","geometry":{"type":"Point","coordinates":[-121.355365783943,38.5082482044992]},"properties":{"Name":"Hedge","Owner":"SMUD","Status":"Operational","Max_Voltag":230,"COUNTY":"Sacramento County","CITY":"Unincorporated"}},{"type":"Feature","geometry":{"type":"Point","coordinates":[-121.397434075548,38.5328298262721]},"properties":{"Name":"Hunt-Wesson","Owner":"SMUD","Status":"Operational","Max_Voltag":230,"COUNTY":"Sacramento County","CITY":"Sacramento"}},{"type":"Feature","geometry":{"type":"Point","coordinates":[-121.418192918259,38.5873145167289]},"properties":{"Name":"Hurley","Owner":"SMUD","Status":"Operational","Max_Voltag":230,"COUNTY":"Sacramento County","CITY":"Unincorporated"}},{"type":"Feature","geometry":{"type":"Point","coordinates":[-121.132417076371,38.6571277212308]},"properties":{"Name":"Lake","Owner":"SMUD","Status":"Operational","Max_Voltag":230,"COUNTY":"Sacramento County","CITY":"Folsom"}},{"type":"Feature","geometry":{"type":"Point","coordinates":[-121.474275507709,38.5881250203986]},"properties":{"Name":"North City","Owner":"SMUD","Status":"Operational","Max_Voltag":230,"COUNTY":"Sacramento County","CITY":"Sacramento"}},{"type":"Feature","geometry":{"type":"Point","coordinates":[-121.486313900002,38.6503857201745]},"properties":{"Name":"Natomas","Owner":"SMUD","Status":"Operational","Max_Voltag":230,"COUNTY":"Sacramento County","CITY":"Unincorporated"}},{"type":"Feature","geometry":{"type":"Point","coordinates":[-121.266373000834,38.6849849992414]},"properties":{"Name":"Orangevale","Owner":"SMUD","Status":"Operational","Max_Voltag":230,"COUNTY":"Sacramento County","CITY":"Citrus Heights"}},{"type":"Feature","geometry":{"type":"Point","coordinates":[-121.470035721876,38.4896439902718]},"properties":{"Name":"Pocket","Owner":"SMUD","Status":"Operational","Max_Voltag":230,"COUNTY":"Sacramento County","CITY":"Sacramento"}},{"type":"Feature","geometry":{"type":"Point","coordinates":[-121.497203976765,38.5841020086068]},"properties":{"Name":"Station A","Owner":"SMUD","Status":"Operational","Max_Voltag":230,"COUNTY":"Sacramento County","CITY":"Sacramento"}},{"type":"Feature","geometry":{"type":"Point","coordinates":[-121.483019979078,38.5718970195057]},"properties":{"Name":"Station B","Owner":"SMUD","Status":"Operational","Max_Voltag":230,"COUNTY":"Sacramento County","CITY":"Sacramento"}},{"type":"Feature","geometry":{"type":"Point","coordinates":[-121.500509920741,38.5720102808165]},"properties":{"Name":"Station D","Owner":"SMUD","Status":"Operational","Max_Voltag":230,"COUNTY":"Sacramento County","CITY":"Sacramento"}},{"type":"Feature","geometry":{"type":"Point","coordinates":[-121.437656824216,38.5083948077447]},"properties":{"Name":"Wire-48Th","Owner":"SMUD","Status":"Operational","Max_Voltag":230,"COUNTY":"Sacramento County","CITY":"Unincorporated"}},{"type":"Feature","geometry":{"type":"Point","coordinates":[-117.322080585632,34.563682136973]},"properties":{"Name":"Victorville","Owner":"LADWP","Status":"Operational","Max_Voltag":500,"COUNTY":"San Bernardino County","CITY":"Victorville"}},{"type":"Feature","geometry":{"type":"Point","coordinates":[-114.966270472496,34.8448541916117]},"properties":{"Name":"Camino","Owner":"Other","Status":"Operational","Max_Voltag":230,"COUNTY":"San Bernardino County","CITY":"Unincorporated"}},{"type":"Feature","geometry":{"type":"Point","coordinates":[-114.171286147924,34.2911618999358]},"properties":{"Name":"Gene","Owner":"Other","Status":"Operational","Max_Voltag":230,"COUNTY":"San Bernardino County","CITY":"Unincorporated"}},{"type":"Feature","geometry":{"type":"Point","coordinates":[-117.368630496731,34.3666283896683]},"properties":{"Name":"Lugo","Owner":"SCE","Status":"Operational","Max_Voltag":500,"COUNTY":"San Bernardino County","CITY":"Unincorporated"}},{"type":"Feature","geometry":{"type":"Point","coordinates":[-114.172469493258,34.2937830059633]},"properties":{"Name":"Whipple","Owner":"SCE","Status":"Operational","Max_Voltag":230,"COUNTY":"San Bernardino County","CITY":"Unincorporated"}},{"type":"Feature","geometry":{"type":"Point","coordinates":[-117.250419441271,33.1011416650971]},"properties":{"Name":"Batiquitos","Owner":"SDG&E","Status":"Operational","Max_Voltag":230,"COUNTY":"San Diego County","CITY":"Carlsbad"}},{"type":"Feature","geometry":{"type":"Point","coordinates":[-117.21908937701,32.9170496283771]},"properties":{"Name":"Doublett","Owner":"SDG&E","Status":"Operational","Max_Voltag":230,"COUNTY":"San Diego County","CITY":"San Diego"}},{"type":"Feature","geometry":{"type":"Point","coordinates":[-117.335517000849,33.1369659973497]},"properties":{"Name":"Encina","Owner":"SDG&E","Status":"Operational","Max_Voltag":230,"COUNTY":"San Diego County","CITY":"Carlsbad"}},{"type":"Feature","geometry":{"type":"Point","coordinates":[-117.116703166664,33.1258888455925]},"properties":{"Name":"Escondido","Owner":"SDG&E","Status":"Operational","Max_Voltag":230,"COUNTY":"San Diego County","CITY":"Escondido"}},{"type":"Feature","geometry":{"type":"Point","coordinates":[-117.164405978293,32.7717129878371]},"properties":{"Name":"Fashion Valley","Owner":"SDG&E","Status":"Operational","Max_Voltag":230,"COUNTY":"San Diego County","CITY":"San Diego"}},{"type":"Feature","geometry":{"type":"Point","coordinates":[-116.899209230719,32.8596137207749]},"properties":{"Name":"Los Coches","Owner":"SDG&E","Status":"Operational","Max_Voltag":230,"COUNTY":"San Diego County","CITY":"Unincorporated"}},{"type":"Feature","geometry":{"type":"Point","coordinates":[-116.98298659202,32.6782963285913]},"properties":{"Name":"Miguel","Owner":"SDG&E","Status":"Operational","Max_Voltag":500,"COUNTY":"San Diego County","CITY":"Unincorporated"}},{"type":"Feature","geometry":{"type":"Point","coordinates":[-117.137443148347,32.7840202737659]},"properties":{"Name":"Mission","Owner":"SDG&E","Status":"Operational","Max_Voltag":230,"COUNTY":"San Diego County","CITY":"San Diego"}},{"type":"Feature","geometry":{"type":"Point","coordinates":[-117.192383987156,32.7660750039874]},"properties":{"Name":"Old Town","Owner":"SDG&E","Status":"Operational","Max_Voltag":230,"COUNTY":"San Diego County","CITY":"San Diego"}},{"type":"Feature","geometry":{"type":"Point","coordinates":[-117.219138619959,32.918711857693]},"properties":{"Name":"Penasquitos","Owner":"SDG&E","Status":"Operational","Max_Voltag":230,"COUNTY":"San Diego County","CITY":"San Diego"}},{"type":"Feature","geometry":{"type":"Point","coordinates":[-117.142389016281,32.6943930126162]},"properties":{"Name":"Sampson","Owner":"SDG&E","Status":"Operational","Max_Voltag":230,"COUNTY":"San Diego County","CITY":"San Diego"}},{"type":"Feature","geometry":{"type":"Point","coordinates":[-117.33454909847,33.2114747104204]},"properties":{"Name":"San Luis Rey","Owner":"SDG&E","Status":"Operational","Max_Voltag":230,"COUNTY":"San Diego County","CITY":"Oceanside"}},{"type":"Feature","geometry":{"type":"Point","coordinates":[-117.031127551539,32.9173986054494]},"properties":{"Name":"Sycamore Canyon","Owner":"SDG&E","Status":"Operational","Max_Voltag":230,"COUNTY":"San Diego County","CITY":"San Diego"}},{"type":"Feature","geometry":{"type":"Point","coordinates":[-117.571453451086,33.4531124248086]},"properties":{"Name":"Talega","Owner":"SDG&E","Status":"Operational","Max_Voltag":230,"COUNTY":"Orange County","CITY":"Unincorporated"}},{"type":"Feature","geometry":{"type":"Point","coordinates":[-122.393447122409,37.7875348406618]},"properties":{"Name":"Embarcadero","Owner":"PG&E","Status":"Operational","Max_Voltag":230,"COUNTY":"San Francisco County","CITY":"San Francisco"}},{"type":"Feature","geometry":{"type":"Point","coordinates":[-122.409537331655,37.7035771514157]},"properties":{"Name":"Martin","Owner":"PG&E","Status":"Operational","Max_Voltag":230,"COUNTY":"San Mateo County","CITY":"Brisbane"}},{"type":"Feature","geometry":{"type":"Point","coordinates":[-121.013686575487,38.0155123387422]},"properties":{"Name":"Bellota","Owner":"PG&E","Status":"Operational","Max_Voltag":230,"COUNTY":"San Joaquin County","CITY":"Unincorporated"}},{"type":"Feature","geometry":{"type":"Point","coordinates":[-121.703512332439,40.8829643491757]},"properties":{"Name":"Sierra Pacific Industries Bfp","Owner":"Other","Status":"Operational","Max_Voltag":230,"COUNTY":"Shasta County","CITY":"Unincorporated"}},{"type":"Feature","geometry":{"type":"Point","coordinates":[-121.357224168297,38.7630196680492]},"properties":{"Name":"Fiddyment Receiving","Owner":"Other","Status":"Operational","Max_Voltag":230,"COUNTY":"Placer County","CITY":"Roseville"}},{"type":"Feature","geometry":{"type":"Point","coordinates":[-121.723382630841,39.0239937711182]},"properties":{"Name":"O'Banion","Owner":"WAPA","Status":"Operational","Max_Voltag":230,"COUNTY":"Sutter County","CITY":"Unincorporated"}},{"type":"Feature","geometry":{"type":"Point","coordinates":[-121.932930889046,37.4274702142213]},"properties":{"Name":"Los Esteros","Owner":"PG&E","Status":"Operational","Max_Voltag":230,"COUNTY":"Santa Clara County","CITY":"San Jose"}},{"type":"Feature","geometry":{"type":"Point","coordinates":[-121.830147829957,38.1246519282487]},"properties":{"Name":"Birds Landing","Owner":"Other","Status":"Operational","Max_Voltag":230,"COUNTY":"Solano County","CITY":"Unincorporated"}},{"type":"Feature","geometry":{"type":"Point","coordinates":[-117.143268210026,32.6948824365997]},"properties":{"Name":"Silvergate","Owner":"SDG&E","Status":"Operational","Max_Voltag":230,"COUNTY":"San Diego County","CITY":"San Diego"}},{"type":"Feature","geometry":{"type":"Point","coordinates":[-117.534532568942,34.0885003904661]},"properties":{"Name":"Rancho Vista","Owner":"SCE","Status":"Operational","Max_Voltag":500,"COUNTY":"San Bernardino County","CITY":"Rancho Cucamonga"}},{"type":"Feature","geometry":{"type":"Point","coordinates":[-120.634811389305,41.5131232399586]},"properties":{"Name":"Hilltop","Owner":"Other","Status":"Operational","Max_Voltag":345,"COUNTY":"Modoc County","CITY":"Unincorporated"}},{"type":"Feature","geometry":{"type":"Point","coordinates":[-121.409487687098,39.8264341511701]},"properties":{"Name":"Cresta","Owner":"PG&E","Status":"Operational","Max_Voltag":230,"COUNTY":"Butte County","CITY":"Unincorporated"}},{"type":"Feature","geometry":{"type":"Point","coordinates":[-121.469971089888,39.723536736268]},"properties":{"Name":"Poe","Owner":"PG&E","Status":"Operational","Max_Voltag":230,"COUNTY":"Butte County","CITY":"Unincorporated"}},{"type":"Feature","geometry":{"type":"Point","coordinates":[-121.486229406263,39.5326759074369]},"properties":{"Name":"Edward C Hyatt","Owner":"PG&E","Status":"Operational","Max_Voltag":230,"COUNTY":"Butte County","CITY":"Unincorporated"}},{"type":"Feature","geometry":{"type":"Point","coordinates":[-120.327376410433,38.9843803225136]},"properties":{"Name":"Loon Lake","Owner":"SMUD","Status":"Operational","Max_Voltag":230,"COUNTY":"El Dorado County","CITY":"Unincorporated"}},{"type":"Feature","geometry":{"type":"Point","coordinates":[-120.378397024699,38.8970228407425]},"properties":{"Name":"Robbs Peak","Owner":"SMUD","Status":"Operational","Max_Voltag":230,"COUNTY":"El Dorado County","CITY":"Unincorporated"}},{"type":"Feature","geometry":{"type":"Point","coordinates":[-122.729310458951,38.7732650114249]},"properties":{"Name":"Big Geysers","Owner":"PG&E","Status":"Operational","Max_Voltag":230,"COUNTY":"Lake County","CITY":"Unincorporated"}},{"type":"Feature","geometry":{"type":"Point","coordinates":[-122.692436711409,38.7626142025849]},"properties":{"Name":"Bear Canyon","Owner":"PG&E","Status":"Operational","Max_Voltag":230,"COUNTY":"Lake County","CITY":"Unincorporated"}},{"type":"Feature","geometry":{"type":"Point","coordinates":[-122.722407969598,38.7878119396803]},"properties":{"Name":"West Ford Flat","Owner":"PG&E","Status":"Operational","Max_Voltag":230,"COUNTY":"Lake County","CITY":"Unincorporated"}},{"type":"Feature","geometry":{"type":"Point","coordinates":[-120.531879682392,38.8340410232913]},"properties":{"Name":"Jaybird","Owner":"SMUD","Status":"Operational","Max_Voltag":230,"COUNTY":"El Dorado County","CITY":"Unincorporated"}},{"type":"Feature","geometry":{"type":"Point","coordinates":[-120.78709847739,38.7651811240033]},"properties":{"Name":"White Rock","Owner":"SMUD","Status":"Operational","Max_Voltag":230,"COUNTY":"El Dorado County","CITY":"Unincorporated"}},{"type":"Feature","geometry":{"type":"Point","coordinates":[-120.492276907814,38.4491752441771]},"properties":{"Name":"Tiger Creek","Owner":"PG&E","Status":"Operational","Max_Voltag":230,"COUNTY":"Amador County","CITY":"Unincorporated"}},{"type":"Feature","geometry":{"type":"Point","coordinates":[-120.669799259553,38.3315451886621]},"properties":{"Name":"Electra 1","Owner":"PG&E","Status":"Operational","Max_Voltag":230,"COUNTY":"Amador County","CITY":"Unincorporated"}},{"type":"Feature","geometry":{"type":"Point","coordinates":[-120.380086196098,38.1450584733742]},"properties":{"Name":"Collierville","Owner":"Other","Status":"Operational","Max_Voltag":230,"COUNTY":"Calaveras County","CITY":"Unincorporated"}},{"type":"Feature","geometry":{"type":"Point","coordinates":[-122.061315868156,38.0184250594784]},"properties":{"Name":"Tesoro","Owner":"Other","Status":"Operational","Max_Voltag":230,"COUNTY":"Contra Costa County","CITY":"Unincorporated"}},{"type":"Feature","geometry":{"type":"Point","coordinates":[-121.762302761261,38.0152897296887]},"properties":{"Name":"Contra Costa Power","Owner":"PG&E","Status":"Operational","Max_Voltag":230,"COUNTY":"Contra Costa County","CITY":"Antioch"}},{"type":"Feature","geometry":{"type":"Point","coordinates":[-121.759797566546,37.946235874434]},"properties":{"Name":"Lone Tree","Owner":"PG&E","Status":"Operational","Max_Voltag":230,"COUNTY":"Contra Costa County","CITY":"Antioch"}},{"type":"Feature","geometry":{"type":"Point","coordinates":[-118.589965466296,37.5458682827503]},"properties":{"Name":"Upper Gorge","Owner":"LADWP","Status":"Operational","Max_Voltag":230,"COUNTY":"Mono County","CITY":"Unincorporated"}},{"type":"Feature","geometry":{"type":"Point","coordinates":[-121.660936900534,37.8212414993999]},"properties":{"Name":"Wind Driven","Owner":"PG&E","Status":"Operational","Max_Voltag":230,"COUNTY":"Contra Costa County","CITY":"Unincorporated"}},{"type":"Feature","geometry":{"type":"Point","coordinates":[-121.72777392653,37.791426311257]},"properties":{"Name":"US Wind Power","Owner":"PG&E","Status":"Operational","Max_Voltag":230,"COUNTY":"Contra Costa County","CITY":"Unincorporated"}},{"type":"Feature","geometry":{"type":"Point","coordinates":[-121.580405386815,37.7980378607836]},"properties":{"Name":"Tracy","Owner":"WAPA","Status":"Operational","Max_Voltag":500,"COUNTY":"Alameda County","CITY":"Unincorporated"}},{"type":"Feature","geometry":{"type":"Point","coordinates":[-121.598343994742,37.7473860107499]},"properties":{"Name":"Fayette Energy Corp.","Owner":"Other","Status":"Operational","Max_Voltag":230,"COUNTY":"Alameda County","CITY":"Unincorporated"}},{"type":"Feature","geometry":{"type":"Point","coordinates":[-121.695087207662,37.693325441636]},"properties":{"Name":"Lawrence Livermore","Owner":"WAPA","Status":"Operational","Max_Voltag":230,"COUNTY":"Alameda County","CITY":"Unincorporated"}},{"type":"Feature","geometry":{"type":"Point","coordinates":[-118.254429822593,34.1094181132976]},"properties":{"Name":"Station G (Atwater)","Owner":"LADWP","Status":"Operational","Max_Voltag":230,"COUNTY":"Los Angeles County","CITY":"Los Angeles"}},{"type":"Feature","geometry":{"type":"Point","coordinates":[-118.557815959732,37.4377653016125]},"properties":{"Name":"Control Gorge","Owner":"LADWP","Status":"Operational","Max_Voltag":230,"COUNTY":"Inyo County","CITY":"Unincorporated"}},{"type":"Feature","geometry":{"type":"Point","coordinates":[-119.25661666611,37.1480000005187]},"properties":{"Name":"Eastwood","Owner":"SCE","Status":"Operational","Max_Voltag":230,"COUNTY":"Fresno County","CITY":"Unincorporated"}},{"type":"Feature","geometry":{"type":"Point","coordinates":[-119.087593449547,36.9089895714722]},"properties":{"Name":"Balch 2","Owner":"PG&E","Status":"Operational","Max_Voltag":230,"COUNTY":"Fresno County","CITY":"Unincorporated"}},{"type":"Feature","geometry":{"type":"Point","coordinates":[-119.02080883935,36.9273955149612]},"properties":{"Name":"Haas","Owner":"PG&E","Status":"Operational","Max_Voltag":230,"COUNTY":"Fresno County","CITY":"Unincorporated"}},{"type":"Feature","geometry":{"type":"Point","coordinates":[-118.963694981258,37.039117991415]},"properties":{"Name":"Helm's Pumped Storage","Owner":"PG&E","Status":"Operational","Max_Voltag":230,"COUNTY":"Fresno County","CITY":"Unincorporated"}},{"type":"Feature","geometry":{"type":"Point","coordinates":[-121.160560125514,38.1177480856814]},"properties":{"Name":"Lockeford","Owner":"PG&E","Status":"Operational","Max_Voltag":230,"COUNTY":"San Joaquin County","CITY":"Unincorporated"}},{"type":"Feature","geometry":{"type":"Point","coordinates":[-120.945233329378,37.0134111126607]},"properties":{"Name":"Wright","Owner":"PG&E","Status":"Operational","Max_Voltag":230,"COUNTY":"Merced County","CITY":"Unincorporated"}},{"type":"Feature","geometry":{"type":"Point","coordinates":[-121.075452774299,37.0666666878549]},"properties":{"Name":"San Luis","Owner":"PG&E","Status":"Operational","Max_Voltag":230,"COUNTY":"Merced County","CITY":"Unincorporated"}},{"type":"Feature","geometry":{"type":"Point","coordinates":[-119.326800879533,36.8327472678533]},"properties":{"Name":"Pine Flat","Owner":"PG&E","Status":"Operational","Max_Voltag":230,"COUNTY":"Fresno County","CITY":"Unincorporated"}},{"type":"Feature","geometry":{"type":"Point","coordinates":[-120.777286564918,36.8620734446133]},"properties":{"Name":"San Luis 3","Owner":"PG&E","Status":"Operational","Max_Voltag":230,"COUNTY":"Merced County","CITY":"Unincorporated"}},{"type":"Feature","geometry":{"type":"Point","coordinates":[-121.77572736453,36.8061298304735]},"properties":{"Name":"Moss Landing","Owner":"PG&E","Status":"Operational","Max_Voltag":500,"COUNTY":"Monterey County","CITY":"Unincorporated"}},{"type":"Feature","geometry":{"type":"Point","coordinates":[-119.004479234471,35.0295790707054]},"properties":{"Name":"Wheeler","Owner":"Other","Status":"Operational","Max_Voltag":230,"COUNTY":"Kern County","CITY":"Unincorporated"}},{"type":"Feature","geometry":{"type":"Point","coordinates":[-122.361380462971,41.9769376530455]},"properties":{"Name":"Copco 2 A","Owner":"PCORP","Status":"Operational","Max_Voltag":230,"COUNTY":"Siskiyou County","CITY":"Unincorporated"}},{"type":"Feature","geometry":{"type":"Point","coordinates":[-121.497791620488,40.9910349633164]},"properties":{"Name":"Pit 1","Owner":"PG&E","Status":"Operational","Max_Voltag":230,"COUNTY":"Shasta County","CITY":"Unincorporated"}},{"type":"Feature","geometry":{"type":"Point","coordinates":[-121.747643640128,40.9976967165482]},"properties":{"Name":"Pit 3","Owner":"PG&E","Status":"Operational","Max_Voltag":230,"COUNTY":"Shasta County","CITY":"Unincorporated"}},{"type":"Feature","geometry":{"type":"Point","coordinates":[-121.849303287683,40.9870939591292]},"properties":{"Name":"Pit 4","Owner":"PG&E","Status":"Operational","Max_Voltag":230,"COUNTY":"Shasta County","CITY":"Unincorporated"}},{"type":"Feature","geometry":{"type":"Point","coordinates":[-121.928699734226,40.8776697287476]},"properties":{"Name":"Cove Road","Owner":"PG&E","Status":"Operational","Max_Voltag":230,"COUNTY":"Shasta County","CITY":"Unincorporated"}},{"type":"Feature","geometry":{"type":"Point","coordinates":[-121.974601527017,40.9925330553874]},"properties":{"Name":"James B. Black","Owner":"PG&E","Status":"Operational","Max_Voltag":230,"COUNTY":"Shasta County","CITY":"Unincorporated"}},{"type":"Feature","geometry":{"type":"Point","coordinates":[-121.992345387377,40.9222705533672]},"properties":{"Name":"Pit 6","Owner":"PG&E","Status":"Operational","Max_Voltag":230,"COUNTY":"Shasta County","CITY":"Unincorporated"}},{"type":"Feature","geometry":{"type":"Point","coordinates":[-121.991072429704,40.8466162551301]},"properties":{"Name":"Pit 7","Owner":"PG&E","Status":"Operational","Max_Voltag":230,"COUNTY":"Shasta County","CITY":"Unincorporated"}},{"type":"Feature","geometry":{"type":"Point","coordinates":[-121.976584911045,40.9867292861736]},"properties":{"Name":"Pit 5","Owner":"PG&E","Status":"Operational","Max_Voltag":230,"COUNTY":"Shasta County","CITY":"Unincorporated"}},{"type":"Feature","geometry":{"type":"Point","coordinates":[-122.761431376631,40.7969677513468]},"properties":{"Name":"Trinity Hydro","Owner":"Other","Status":"Operational","Max_Voltag":230,"COUNTY":"Trinity County","CITY":"Unincorporated"}},{"type":"Feature","geometry":{"type":"Point","coordinates":[-122.537118603351,40.5982364212924]},"properties":{"Name":"Whiskeytown","Owner":"WAPA","Status":"Operational","Max_Voltag":230,"COUNTY":"Shasta County","CITY":"Unincorporated"}},{"type":"Feature","geometry":{"type":"Point","coordinates":[-122.625739813614,40.6459034166202]},"properties":{"Name":"Carr","Owner":"WAPA","Status":"Operational","Max_Voltag":230,"COUNTY":"Shasta County","CITY":"Unincorporated"}},{"type":"Feature","geometry":{"type":"Point","coordinates":[-122.46772913485,40.6280132952873]},"properties":{"Name":"Spring Creek","Owner":"WAPA","Status":"Operational","Max_Voltag":230,"COUNTY":"Shasta County","CITY":"Unincorporated"}},{"type":"Feature","geometry":{"type":"Point","coordinates":[-122.315549412509,40.5194048465316]},"properties":{"Name":"Airport","Owner":"WAPA","Status":"Operational","Max_Voltag":230,"COUNTY":"Shasta County","CITY":"Redding"}},{"type":"Feature","geometry":{"type":"Point","coordinates":[-121.148693029369,40.0861275680035]},"properties":{"Name":"Caribou 2","Owner":"PG&E","Status":"Operational","Max_Voltag":230,"COUNTY":"Plumas County","CITY":"Unincorporated"}},{"type":"Feature","geometry":{"type":"Point","coordinates":[-121.249422049239,40.007405680657]},"properties":{"Name":"Belden","Owner":"PG&E","Status":"Operational","Max_Voltag":230,"COUNTY":"Plumas County","CITY":"Unincorporated"}},{"type":"Feature","geometry":{"type":"Point","coordinates":[-120.596410170708,39.0242474282384]},"properties":{"Name":"Middle Fork","Owner":"PG&E","Status":"Operational","Max_Voltag":230,"COUNTY":"Placer County","CITY":"Unincorporated"}},{"type":"Feature","geometry":{"type":"Point","coordinates":[-122.711576370464,38.7487630837965]},"properties":{"Name":"NCPA 3&4","Owner":"PG&E","Status":"Operational","Max_Voltag":230,"COUNTY":"Sonoma County","CITY":"Unincorporated"}},{"type":"Feature","geometry":{"type":"Point","coordinates":[-122.783860177574,38.8053101045763]},"properties":{"Name":"Cobb Creek","Owner":"PG&E","Status":"Operational","Max_Voltag":230,"COUNTY":"Sonoma County","CITY":"Unincorporated"}},{"type":"Feature","geometry":{"type":"Point","coordinates":[-122.748291188066,38.7685908876596]},"properties":{"Name":"Socrates 18","Owner":"PG&E","Status":"Operational","Max_Voltag":230,"COUNTY":"Sonoma County","CITY":"Unincorporated"}},{"type":"Feature","geometry":{"type":"Point","coordinates":[-122.782032194005,38.7867116932603]},"properties":{"Name":"Sulphur Springs","Owner":"PG&E","Status":"Operational","Max_Voltag":230,"COUNTY":"Sonoma County","CITY":"Unincorporated"}},{"type":"Feature","geometry":{"type":"Point","coordinates":[-122.808222133244,38.8056200034825]},"properties":{"Name":"Mccabe","Owner":"PG&E","Status":"Operational","Max_Voltag":230,"COUNTY":"Sonoma County","CITY":"Unincorporated"}},{"type":"Feature","geometry":{"type":"Point","coordinates":[-122.767006682407,38.7959789995658]},"properties":{"Name":"Fumarole","Owner":"PG&E","Status":"Operational","Max_Voltag":230,"COUNTY":"Sonoma County","CITY":"Unincorporated"}},{"type":"Feature","geometry":{"type":"Point","coordinates":[-121.26415161446,38.76173800367]},"properties":{"Name":"Berry","Owner":"Other","Status":"Operational","Max_Voltag":230,"COUNTY":"Placer County","CITY":"Roseville"}},{"type":"Feature","geometry":{"type":"Point","coordinates":[-122.719549302192,38.7522776483367]},"properties":{"Name":"NCPA 1&2","Owner":"PG&E","Status":"Operational","Max_Voltag":230,"COUNTY":"Sonoma County","CITY":"Unincorporated"}},{"type":"Feature","geometry":{"type":"Point","coordinates":[-121.161144151721,38.7074704239233]},"properties":{"Name":"Folsom","Owner":"WAPA","Status":"Operational","Max_Voltag":230,"COUNTY":"Sacramento County","CITY":"Folsom"}},{"type":"Feature","geometry":{"type":"Point","coordinates":[-121.918111373719,38.4051884236776]},"properties":{"Name":"Calpeak Power Vaca Dixon 1","Owner":"PG&E","Status":"Operational","Max_Voltag":500,"COUNTY":"Solano County","CITY":"Unincorporated"}},{"type":"Feature","geometry":{"type":"Point","coordinates":[-121.123569417322,38.3443729856041]},"properties":{"Name":"Rancho Seco","Owner":"SMUD","Status":"Operational","Max_Voltag":230,"COUNTY":"Sacramento County","CITY":"Unincorporated"}},{"type":"Feature","geometry":{"type":"Point","coordinates":[-121.124826870073,38.3391362950218]},"properties":{"Name":"Cosumnes","Owner":"SMUD","Status":"Operational","Max_Voltag":230,"COUNTY":"Sacramento County","CITY":"Unincorporated"}},{"type":"Feature","geometry":{"type":"Point","coordinates":[-121.829230987818,38.123638004783]},"properties":{"Name":"US Windpower","Owner":"Other","Status":"Operational","Max_Voltag":230,"COUNTY":"Solano County","CITY":"Unincorporated"}},{"type":"Feature","geometry":{"type":"Point","coordinates":[-121.86692486757,38.2214576488959]},"properties":{"Name":"Lambie Energy","Owner":"PG&E","Status":"Operational","Max_Voltag":230,"COUNTY":"Solano County","CITY":"Unincorporated"}},{"type":"Feature","geometry":{"type":"Point","coordinates":[-121.388205847924,38.0879382278483]},"properties":{"Name":"Lodi Stig","Owner":"Other","Status":"Operational","Max_Voltag":230,"COUNTY":"San Joaquin County","CITY":"Lodi"}},{"type":"Feature","geometry":{"type":"Point","coordinates":[-120.906082569983,37.4899526841034]},"properties":{"Name":"Walnut","Owner":"Other","Status":"Operational","Max_Voltag":230,"COUNTY":"Stanislaus County","CITY":"Unincorporated"}},{"type":"Feature","geometry":{"type":"Point","coordinates":[-121.746599027014,37.2214140350364]},"properties":{"Name":"Metcalf Energy Center","Owner":"PG&E","Status":"Operational","Max_Voltag":230,"COUNTY":"Santa Clara County","CITY":"San Jose"}},{"type":"Feature","geometry":{"type":"Point","coordinates":[-120.847387978825,35.2162919880748]},"properties":{"Name":"Diablo Canyon","Owner":"PG&E","Status":"Operational","Max_Voltag":500,"COUNTY":"San Luis Obispo County","CITY":"Unincorporated"}},{"type":"Feature","geometry":{"type":"Point","coordinates":[-115.121947536562,34.1488390889267]},"properties":{"Name":"Iron Mt.","Owner":"SCE","Status":"Operational","Max_Voltag":230,"COUNTY":"San Bernardino County","CITY":"Unincorporated"}},{"type":"Feature","geometry":{"type":"Point","coordinates":[-114.142261123851,34.2932916622854]},"properties":{"Name":"Parker","Owner":"WAPA","Status":"Operational","Max_Voltag":230,"COUNTY":"San Bernardino County","CITY":"Unincorporated"}},{"type":"Feature","geometry":{"type":"Point","coordinates":[-114.141425002528,34.2910333373495]},"properties":{"Name":"Parker 2","Owner":"WAPA","Status":"Operational","Max_Voltag":230,"COUNTY":"San Bernardino County","CITY":"Unincorporated"}},{"type":"Feature","geometry":{"type":"Point","coordinates":[-115.45365672187,33.8108307491044]},"properties":{"Name":"Eagle Mt.","Owner":"SCE","Status":"Operational","Max_Voltag":230,"COUNTY":"Riverside County","CITY":"Unincorporated"}},{"type":"Feature","geometry":{"type":"Point","coordinates":[-115.558982435422,33.6712157622054]},"properties":{"Name":"Capacitor","Owner":"SCE","Status":"Operational","Max_Voltag":500,"COUNTY":"Riverside County","CITY":"Unincorporated"}},{"type":"Feature","geometry":{"type":"Point","coordinates":[-118.347378694586,34.0881914447558]},"properties":{"Name":"Station H (Hollywood)","Owner":"LADWP","Status":"Operational","Max_Voltag":230,"COUNTY":"Los Angeles County","CITY":"Los Angeles"}},{"type":"Feature","geometry":{"type":"Point","coordinates":[-118.543506970456,34.2293518780689]},"properties":{"Name":"Station J","Owner":"LADWP","Status":"Operational","Max_Voltag":230,"COUNTY":"Los Angeles County","CITY":"Los Angeles"}},{"type":"Feature","geometry":{"type":"Point","coordinates":[-118.460034998622,34.0332960145412]},"properties":{"Name":"Station K (Olympic)","Owner":"LADWP","Status":"Operational","Max_Voltag":230,"COUNTY":"Los Angeles County","CITY":"Los Angeles"}},{"type":"Feature","geometry":{"type":"Point","coordinates":[-118.425367775726,33.9192277823443]},"properties":{"Name":"Station L (Scattergood)","Owner":"LADWP","Status":"Operational","Max_Voltag":230,"COUNTY":"Los Angeles County","CITY":"Los Angeles"}},{"type":"Feature","geometry":{"type":"Point","coordinates":[-118.392554867816,34.2429328853837]},"properties":{"Name":"Station M (Valley)","Owner":"LADWP","Status":"Operational","Max_Voltag":230,"COUNTY":"Los Angeles County","CITY":"Los Angeles"}},{"type":"Feature","geometry":{"type":"Point","coordinates":[-118.246129662456,34.0433533269321]},"properties":{"Name":"Station P (Market)","Owner":"LADWP","Status":"Operational","Max_Voltag":230,"COUNTY":"Los Angeles County","CITY":"Los Angeles"}},{"type":"Feature","geometry":{"type":"Point","coordinates":[-118.423153961252,34.1715874279204]},"properties":{"Name":"Station S (Van Nuys)","Owner":"LADWP","Status":"Operational","Max_Voltag":230,"COUNTY":"Los Angeles County","CITY":"Los Angeles"}},{"type":"Feature","geometry":{"type":"Point","coordinates":[-118.591588282739,34.1895064029675]},"properties":{"Name":"Station T","Owner":"LADWP","Status":"Operational","Max_Voltag":230,"COUNTY":"Los Angeles County","CITY":"Los Angeles"}},{"type":"Feature","geometry":{"type":"Point","coordinates":[-118.543800540789,34.1793519258907]},"properties":{"Name":"Station U (Tarzana)","Owner":"LADWP","Status":"Operational","Max_Voltag":230,"COUNTY":"Los Angeles County","CITY":"Los Angeles"}},{"type":"Feature","geometry":{"type":"Point","coordinates":[-118.490086245499,34.3121217114148]},"properties":{"Name":"Sylmar West","Owner":"LADWP","Status":"Operational","Max_Voltag":230,"COUNTY":"Los Angeles County","CITY":"Los Angeles"}},{"type":"Feature","geometry":{"type":"Point","coordinates":[-118.243477241951,33.817494822822]},"properties":{"Name":"Arcogen","Owner":"SCE","Status":"Operational","Max_Voltag":230,"COUNTY":"Los Angeles County","CITY":"Carson"}},{"type":"Feature","geometry":{"type":"Point","coordinates":[-118.222539037119,33.8192689822717]},"properties":{"Name":"Hinson","Owner":"SCE","Status":"Operational","Max_Voltag":230,"COUNTY":"Los Angeles County","CITY":"Long Beach"}},{"type":"Feature","geometry":{"type":"Point","coordinates":[-118.203577930803,34.0149746668063]},"properties":{"Name":"Kinetic","Owner":"SCE","Status":"Operational","Max_Voltag":230,"COUNTY":"Los Angeles County","CITY":"Los Angeles"}},{"type":"Feature","geometry":{"type":"Point","coordinates":[-118.657369472967,34.5874944653314]},"properties":{"Name":"Castaic","Owner":"LADWP","Status":"Operational","Max_Voltag":230,"COUNTY":"Los Angeles County","CITY":"Unincorporated"}},{"type":"Feature","geometry":{"type":"Point","coordinates":[-118.118480763788,34.4859659665222]},"properties":{"Name":"Vincent","Owner":"SCE","Status":"Operational","Max_Voltag":500,"COUNTY":"Los Angeles County","CITY":"Unincorporated"}},{"type":"Feature","geometry":{"type":"Point","coordinates":[-119.917080395113,36.8528096407412]},"properties":{"Name":"Gregg","Owner":"PG&E","Status":"Operational","Max_Voltag":230,"COUNTY":"Madera County","CITY":"Unincorporated"}},{"type":"Feature","geometry":{"type":"Point","coordinates":[-120.033583776574,36.9831421645107]},"properties":{"Name":"Storey","Owner":"PG&E","Status":"Operational","Max_Voltag":230,"COUNTY":"Madera County","CITY":"Unincorporated"}},{"type":"Feature","geometry":{"type":"Point","coordinates":[-122.540563717924,38.0769286006976]},"properties":{"Name":"Ignacio","Owner":"PG&E","Status":"Operational","Max_Voltag":230,"COUNTY":"Marin County","CITY":"Novato"}},{"type":"Feature","geometry":{"type":"Point","coordinates":[-120.407173881988,37.293395088117]},"properties":{"Name":"Wilson","Owner":"PG&E","Status":"Operational","Max_Voltag":230,"COUNTY":"Merced County","CITY":"Merced"}},{"type":"Feature","geometry":{"type":"Point","coordinates":[-121.021102611027,37.0535131218879]},"properties":{"Name":"Los Banos","Owner":"PG&E","Status":"Operational","Max_Voltag":500,"COUNTY":"Merced County","CITY":"Unincorporated"}},{"type":"Feature","geometry":{"type":"Point","coordinates":[-120.533007761573,41.5007403445263]},"properties":{"Name":"Warner","Owner":"Other","Status":"Operational","Max_Voltag":230,"COUNTY":"Modoc County","CITY":"Unincorporated"}},{"type":"Feature","geometry":{"type":"Point","coordinates":[-120.533467054906,41.4998644034866]},"properties":{"Name":"Alturas","Owner":"PCORP","Status":"Operational","Max_Voltag":230,"COUNTY":"Modoc County","CITY":"Unincorporated"}},{"type":"Feature","geometry":{"type":"Point","coordinates":[-121.145836869161,36.265138855885]},"properties":{"Name":"Coburn","Owner":"PG&E","Status":"Operational","Max_Voltag":230,"COUNTY":"Monterey County","CITY":"Unincorporated"}},{"type":"Feature","geometry":{"type":"Point","coordinates":[-122.267948988161,38.2478290208819]},"properties":{"Name":"Tulucay","Owner":"PG&E","Status":"Operational","Max_Voltag":230,"COUNTY":"Napa County","CITY":"Unincorporated"}},{"type":"Feature","geometry":{"type":"Point","coordinates":[-117.768020006899,33.6649049877802]},"properties":{"Name":"Santiago","Owner":"SCE","Status":"Operational","Max_Voltag":230,"COUNTY":"Orange County","CITY":"Irvine"}},{"type":"Feature","geometry":{"type":"Point","coordinates":[-117.789694823975,33.8288647992709]},"properties":{"Name":"Serrano","Owner":"SCE","Status":"Operational","Max_Voltag":500,"COUNTY":"Orange County","CITY":"Orange"}},{"type":"Feature","geometry":{"type":"Point","coordinates":[-121.348627330554,37.9922990314117]},"properties":{"Name":"Stagg","Owner":"PG&E","Status":"Operational","Max_Voltag":230,"COUNTY":"San Joaquin County","CITY":"Stockton"}},{"type":"Feature","geometry":{"type":"Point","coordinates":[-121.240273990864,37.9198510033241]},"properties":{"Name":"Weber","Owner":"PG&E","Status":"Operational","Max_Voltag":230,"COUNTY":"San Joaquin County","CITY":"Unincorporated"}},{"type":"Feature","geometry":{"type":"Point","coordinates":[-120.453198883211,35.0088645568997]},"properties":{"Name":"Mesa","Owner":"PG&E","Status":"Operational","Max_Voltag":230,"COUNTY":"San Luis Obispo County","CITY":"Unincorporated"}},{"type":"Feature","geometry":{"type":"Point","coordinates":[-122.205655815145,37.4157024217659]},"properties":{"Name":"S.L.A.C","Owner":"Other","Status":"Operational","Max_Voltag":230,"COUNTY":"San Mateo County","CITY":"Unincorporated"}},{"type":"Feature","geometry":{"type":"Point","coordinates":[-122.286370933728,37.4576168218094]},"properties":{"Name":"Jefferson","Owner":"PG&E","Status":"Operational","Max_Voltag":230,"COUNTY":"San Mateo County","CITY":"Unincorporated"}},{"type":"Feature","geometry":{"type":"Point","coordinates":[-122.318663921006,37.5830746092416]},"properties":{"Name":"San Mateo","Owner":"PG&E","Status":"Operational","Max_Voltag":230,"COUNTY":"San Mateo County","CITY":"San Mateo"}},{"type":"Feature","geometry":{"type":"Point","coordinates":[-121.901068310671,37.2337134526518]},"properties":{"Name":"Hicks","Owner":"PG&E","Status":"Operational","Max_Voltag":230,"COUNTY":"Santa Clara County","CITY":"San Jose"}},{"type":"Feature","geometry":{"type":"Point","coordinates":[-122.075426097989,37.3264076646004]},"properties":{"Name":"Monta Vista (Upper)","Owner":"PG&E","Status":"Operational","Max_Voltag":230,"COUNTY":"Santa Clara County","CITY":"Cupertino"}},{"type":"Feature","geometry":{"type":"Point","coordinates":[-122.015219816481,37.281036626717]},"properties":{"Name":"Saratoga","Owner":"PG&E","Status":"Operational","Max_Voltag":230,"COUNTY":"Santa Clara County","CITY":"Saratoga"}},{"type":"Feature","geometry":{"type":"Point","coordinates":[-121.715104759702,40.8779636017876]},"properties":{"Name":"Burney Forest Power","Owner":"Other","Status":"Operational","Max_Voltag":230,"COUNTY":"Shasta County","CITY":"Unincorporated"}},{"type":"Feature","geometry":{"type":"Point","coordinates":[-122.264224928726,40.3978800229156]},"properties":{"Name":"Cottonwood","Owner":"PG&E","Status":"Operational","Max_Voltag":230,"COUNTY":"Shasta County","CITY":"Unincorporated"}},{"type":"Feature","geometry":{"type":"Point","coordinates":[-121.935815805225,40.8074789642185]},"properties":{"Name":"Round Mt.","Owner":"PG&E","Status":"Operational","Max_Voltag":500,"COUNTY":"Shasta County","CITY":"Unincorporated"}},{"type":"Feature","geometry":{"type":"Point","coordinates":[-121.922635384711,38.4032993459974]},"properties":{"Name":"Amerigas","Owner":"PG&E","Status":"Operational","Max_Voltag":230,"COUNTY":"Solano County","CITY":"Unincorporated"}},{"type":"Feature","geometry":{"type":"Point","coordinates":[-122.137389077255,38.0808707633938]},"properties":{"Name":"Bahia","Owner":"PG&E","Status":"Operational","Max_Voltag":230,"COUNTY":"Solano County","CITY":"Benicia"}},{"type":"Feature","geometry":{"type":"Point","coordinates":[-121.970706101365,38.2854641121659]},"properties":{"Name":"Peabody","Owner":"PG&E","Status":"Operational","Max_Voltag":230,"COUNTY":"Solano County","CITY":"Fairfield"}},{"type":"Feature","geometry":{"type":"Point","coordinates":[-122.760668946805,38.4978184238202]},"properties":{"Name":"Fulton","Owner":"PG&E","Status":"Operational","Max_Voltag":230,"COUNTY":"Sonoma County","CITY":"Unincorporated"}},{"type":"Feature","geometry":{"type":"Point","coordinates":[-122.581645402429,38.250955666788]},"properties":{"Name":"Lakeville","Owner":"PG&E","Status":"Operational","Max_Voltag":230,"COUNTY":"Sonoma County","CITY":"Unincorporated"}},{"type":"Feature","geometry":{"type":"Point","coordinates":[-120.917076738132,37.6679156752815]},"properties":{"Name":"Parker","Owner":"Other","Status":"Operational","Max_Voltag":230,"COUNTY":"Stanislaus County","CITY":"Modesto"}},{"type":"Feature","geometry":{"type":"Point","coordinates":[-121.231136327794,37.5169430284116]},"properties":{"Name":"Westley","Owner":"Other","Status":"Operational","Max_Voltag":230,"COUNTY":"Stanislaus County","CITY":"Unincorporated"}},{"type":"Feature","geometry":{"type":"Point","coordinates":[-120.802460810507,37.7419796703203]},"properties":{"Name":"Warnerville","Owner":"Other","Status":"Operational","Max_Voltag":230,"COUNTY":"Stanislaus County","CITY":"Unincorporated"}},{"type":"Feature","geometry":{"type":"Point","coordinates":[-120.826458777808,37.7726567483314]},"properties":{"Name":"Cottle","Owner":"PG&E","Status":"Operational","Max_Voltag":230,"COUNTY":"Stanislaus County","CITY":"Oakdale"}},{"type":"Feature","geometry":{"type":"Point","coordinates":[-121.696246276026,39.0518008535301]},"properties":{"Name":"Sutter","Owner":"Other","Status":"Operational","Max_Voltag":230,"COUNTY":"Sutter County","CITY":"Unincorporated"}},{"type":"Feature","geometry":{"type":"Point","coordinates":[-121.466842953948,38.9351789535254]},"properties":{"Name":"Rio Oso","Owner":"PG&E","Status":"Operational","Max_Voltag":230,"COUNTY":"Sutter County","CITY":"Unincorporated"}},{"type":"Feature","geometry":{"type":"Point","coordinates":[-122.382218419411,40.3824583816985]},"properties":{"Name":"Olinda","Owner":"Other","Status":"Operational","Max_Voltag":500,"COUNTY":"Shasta County","CITY":"Unincorporated"}},{"type":"Feature","geometry":{"type":"Point","coordinates":[-120.381455113607,38.144560071485]},"properties":{"Name":"Sierra","Owner":"Other","Status":"Operational","Max_Voltag":230,"COUNTY":"Calaveras County","CITY":"Unincorporated"}},{"type":"Feature","geometry":{"type":"Point","coordinates":[-121.191504737059,39.3309677889238]},"properties":{"Name":"Colgate","Owner":"PG&E","Status":"Operational","Max_Voltag":230,"COUNTY":"Yuba County","CITY":"Unincorporated"}},{"type":"Feature","geometry":{"type":"Point","coordinates":[-122.276502430089,39.2371879475997]},"properties":{"Name":"Maxwell","Owner":"WAPA","Status":"Operational","Max_Voltag":500,"COUNTY":"Colusa County","CITY":"Unincorporated"}},{"type":"Feature","geometry":{"type":"Point","coordinates":[-122.444082679218,40.6103492940185]},"properties":{"Name":"Keswick","Owner":"WAPA","Status":"Operational","Max_Voltag":230,"COUNTY":"Shasta County","CITY":"Unincorporated"}},{"type":"Feature","geometry":{"type":"Point","coordinates":[-122.421246459955,40.7150131500719]},"properties":{"Name":"Shasta","Owner":"WAPA","Status":"Operational","Max_Voltag":230,"COUNTY":"Shasta County","CITY":"Unincorporated"}},{"type":"Feature","geometry":{"type":"Point","coordinates":[-120.856014326226,35.3743396104401]},"properties":{"Name":"Morro Bay","Owner":"PG&E","Status":"Operational","Max_Voltag":230,"COUNTY":"San Luis Obispo County","CITY":"Morro Bay"}},{"type":"Feature","geometry":{"type":"Point","coordinates":[-117.437799552798,34.5516473546961]},"properties":{"Name":"Adelanto","Owner":"LADWP","Status":"Operational","Max_Voltag":500,"COUNTY":"San Bernardino County","CITY":"Adelanto"}},{"type":"Feature","geometry":{"type":"Point","coordinates":[-117.287886119121,33.1228805598016]},"properties":{"Name":"Palomar Airport","Owner":"SDG&E","Status":"Operational","Max_Voltag":230,"COUNTY":"San Diego County","CITY":"Carlsbad"}},{"type":"Feature","geometry":{"type":"Point","coordinates":[-122.425062376619,40.6789886644134]},"properties":{"Name":"Flannigan","Owner":"Other","Status":"Operational","Max_Voltag":230,"COUNTY":"Shasta County","CITY":"Unincorporated"}},{"type":"Feature","geometry":{"type":"Point","coordinates":[-117.238769445473,33.1414861115351]},"properties":{"Name":"Shadowridge","Owner":"SDG&E","Status":"Operational","Max_Voltag":230,"COUNTY":"San Diego County","CITY":"Vista"}},{"type":"Feature","geometry":{"type":"Point","coordinates":[-121.933475294159,40.8248623149865]},"properties":{"Name":"Pit 7 Tap","Owner":" ","Status":"IN SERVICE","Max_Voltag":230,"COUNTY":"Shasta County","CITY":"Unincorporated"}},{"type":"Feature","geometry":{"type":"Point","coordinates":[-121.220474320705,38.6376930869485]},"properties":{"Name":"Unknown","Owner":" ","Status":"IN SERVICE","Max_Voltag":230,"COUNTY":"Sacramento County","CITY":"Unincorporated"}},{"type":"Feature","geometry":{"type":"Point","coordinates":[-118.995054147341,35.0246582658224]},"properties":{"Name":"Unknown","Owner":" ","Status":"IN SERVICE","Max_Voltag":230,"COUNTY":"Kern County","CITY":"Unincorporated"}},{"type":"Feature","geometry":{"type":"Point","coordinates":[-120.059899910246,35.3822548591753]},"properties":{"Name":"Solar","Owner":" ","Status":"IN SERVICE","Max_Voltag":230,"COUNTY":"San Luis Obispo County","CITY":"Unincorporated"}},{"type":"Feature","geometry":{"type":"Point","coordinates":[-121.283901163118,39.986407290769]},"properties":{"Name":"Bucks Creek","Owner":" ","Status":"IN SERVICE","Max_Voltag":230,"COUNTY":"Plumas County","CITY":"Unincorporated"}},{"type":"Feature","geometry":{"type":"Point","coordinates":[-122.765661639424,38.7786536660168]},"properties":{"Name":"Geysers Tap 6","Owner":" ","Status":"IN SERVICE","Max_Voltag":230,"COUNTY":"Sonoma County","CITY":"Unincorporated"}},{"type":"Feature","geometry":{"type":"Point","coordinates":[-122.042745512818,37.6933017069456]},"properties":{"Name":"Castro Valley Tap","Owner":" ","Status":"IN SERVICE","Max_Voltag":230,"COUNTY":"Alameda County","CITY":"Unincorporated"}},{"type":"Feature","geometry":{"type":"Point","coordinates":[-122.75240343379,38.7778403011369]},"properties":{"Name":"Geysers Tap  9","Owner":" ","Status":"IN SERVICE","Max_Voltag":230,"COUNTY":"Sonoma County","CITY":"Unincorporated"}},{"type":"Feature","geometry":{"type":"Point","coordinates":[-122.724322436673,38.7561676198963]},"properties":{"Name":"Geysers Tap 3","Owner":" ","Status":"IN SERVICE","Max_Voltag":230,"COUNTY":"Sonoma County","CITY":"Unincorporated"}},{"type":"Feature","geometry":{"type":"Point","coordinates":[-122.754491247868,38.7543263899537]},"properties":{"Name":"Unknown","Owner":" ","Status":"IN SERVICE","Max_Voltag":230,"COUNTY":"Sonoma County","CITY":"Unincorporated"}},{"type":"Feature","geometry":{"type":"Point","coordinates":[-122.076035009326,37.8557906506922]},"properties":{"Name":"Rossmoor Tap 1","Owner":" ","Status":"IN SERVICE","Max_Voltag":230,"COUNTY":"Contra Costa County","CITY":"Walnut Creek"}},{"type":"Feature","geometry":{"type":"Point","coordinates":[-119.916916543303,36.2335307740897]},"properties":{"Name":"Unknown","Owner":" ","Status":"IN SERVICE","Max_Voltag":230,"COUNTY":"Kings County","CITY":"Unincorporated"}},{"type":"Feature","geometry":{"type":"Point","coordinates":[-121.77745231403,38.1203778759551]},"properties":{"Name":"Unknown","Owner":" ","Status":"IN SERVICE","Max_Voltag":230,"COUNTY":"Solano County","CITY":"Unincorporated"}},{"type":"Feature","geometry":{"type":"Point","coordinates":[-117.55423813788,33.3696857770087]},"properties":{"Name":"San Onofre","Owner":"SCE","Status":"Operational","Max_Voltag":230,"COUNTY":"San Diego County","CITY":"Unincorporated"}},{"type":"Feature","geometry":{"type":"Point","coordinates":[-117.117269444856,33.1209416668099]},"properties":{"Name":"Calpeak Power Enterprise 7","Owner":"SDG&E","Status":"Operational","Max_Voltag":230,"COUNTY":"San Diego County","CITY":"Escondido"}},{"type":"Feature","geometry":{"type":"Point","coordinates":[-117.143478988928,32.6964969934981]},"properties":{"Name":"Main Street","Owner":"SDG&E","Status":"Operational","Max_Voltag":230,"COUNTY":"San Diego County","CITY":"San Diego"}},{"type":"Feature","geometry":{"type":"Point","coordinates":[-118.435217147945,34.8592779421222]},"properties":{"Name":"Whirlwind","Owner":"SCE","Status":"Operational","Max_Voltag":500,"COUNTY":"Kern County","CITY":"Unincorporated"}},{"type":"Feature","geometry":{"type":"Point","coordinates":[-121.752786285822,40.8591501084218]},"properties":{"Name":"Carberry","Owner":"PG&E","Status":"Operational","Max_Voltag":230,"COUNTY":"Shasta County","CITY":"Unincorporated"}},{"type":"Feature","geometry":{"type":"Point","coordinates":[-120.004216126968,39.656231643218]},"properties":{"Name":"Bordertown","Owner":"Other","Status":"Operational","Max_Voltag":345,"COUNTY":"Sierra County","CITY":"Unincorporated"}},{"type":"Feature","geometry":{"type":"Point","coordinates":[-121.207887038011,38.5533057752619]},"properties":{"Name":"Canyonlands","Owner":"SMUD","Status":"Operational","Max_Voltag":230,"COUNTY":"Sacramento County","CITY":"Rancho Cordova"}},{"type":"Feature","geometry":{"type":"Point","coordinates":[-121.350478231044,38.4530336360244]},"properties":{"Name":"Calvine-Kingbridge","Owner":"SMUD","Status":"Operational","Max_Voltag":230,"COUNTY":"Sacramento County","CITY":"Unincorporated"}},{"type":"Feature","geometry":{"type":"Point","coordinates":[-116.682878833155,32.8091042958269]},"properties":{"Name":"Suncrest","Owner":"SDG&E","Status":"Operational","Max_Voltag":500,"COUNTY":"San Diego County","CITY":"Unincorporated"}},{"type":"Feature","geometry":{"type":"Point","coordinates":[-114.815927678249,33.5789801133802]},"properties":{"Name":"Colorado River","Owner":"SCE","Status":"Operational","Max_Voltag":500,"COUNTY":"Riverside County","CITY":"Unincorporated"}},{"type":"Feature","geometry":{"type":"Point","coordinates":[-116.042861460704,32.7426330710076]},"properties":{"Name":"Ocotillo Express","Owner":"SDG&E","Status":"Operational","Max_Voltag":500,"COUNTY":"Imperial County","CITY":"Unincorporated"}},{"type":"Feature","geometry":{"type":"Point","coordinates":[-118.247901925324,35.207091027898]},"properties":{"Name":"Unknown","Owner":"SCE","Status":"Operational","Max_Voltag":230,"COUNTY":"Kern County","CITY":"Unincorporated"}},{"type":"Feature","geometry":{"type":"Point","coordinates":[-121.831814703374,38.1248212189367]},"properties":{"Name":"Shiloh IV","Owner":"Other","Status":"Operational","Max_Voltag":230,"COUNTY":"Solano County","CITY":"Unincorporated"}},{"type":"Feature","geometry":{"type":"Point","coordinates":[-117.589242619775,33.456874354844]},"properties":{"Name":"Pico","Owner":"SDG&E","Status":"Operational","Max_Voltag":230,"COUNTY":"Orange County","CITY":"San Clemente"}},{"type":"Feature","geometry":{"type":"Point","coordinates":[-121.846421008059,38.1713201408462]},"properties":{"Name":"Shiloh II","Owner":"PG&E","Status":"Operational","Max_Voltag":500,"COUNTY":"Solano County","CITY":"Unincorporated"}},{"type":"Feature","geometry":{"type":"Point","coordinates":[-121.846916111833,38.1695226447877]},"properties":{"Name":"Shiloh III","Owner":"PG&E","Status":"Operational","Max_Voltag":230,"COUNTY":"Solano County","CITY":"Unincorporated"}},{"type":"Feature","geometry":{"type":"Point","coordinates":[-115.573188885602,33.204912465372]},"properties":{"Name":"Bannister","Owner":"IID","Status":"Operational","Max_Voltag":230,"COUNTY":"Imperial County","CITY":"Unincorporated"}},{"type":"Feature","geometry":{"type":"Point","coordinates":[-115.448561612326,33.1703052404367]},"properties":{"Name":"Sonora","Owner":"IID","Status":"Operational","Max_Voltag":230,"COUNTY":"Imperial County","CITY":"Unincorporated"}},{"type":"Feature","geometry":{"type":"Point","coordinates":[-121.234857035615,38.7382257808304]},"properties":{"Name":"South East","Owner":"Other","Status":"Operational","Max_Voltag":230,"COUNTY":"Placer County","CITY":"Roseville"}},{"type":"Feature","geometry":{"type":"Point","coordinates":[-122.754389955633,38.7542832121768]},"properties":{"Name":"Geysers Tap 1","Owner":" ","Status":"IN SERVICE","Max_Voltag":230,"COUNTY":"Sonoma County","CITY":"Unincorporated"}},{"type":"Feature","geometry":{"type":"Point","coordinates":[-122.288745914049,37.3879342403217]},"properties":{"Name":"S.L.A.C. Tap","Owner":" ","Status":"IN SERVICE","Max_Voltag":230,"COUNTY":"San Mateo County","CITY":"Unincorporated"}},{"type":"Feature","geometry":{"type":"Point","coordinates":[-122.07604218956,37.8558840007407]},"properties":{"Name":"Rossmoor Tap 2","Owner":" ","Status":"IN SERVICE","Max_Voltag":230,"COUNTY":"Contra Costa County","CITY":"Walnut Creek"}},{"type":"Feature","geometry":{"type":"Point","coordinates":[-114.490357023535,32.7465029994124]},"properties":{"Name":"North Gila","Owner":"Other","Status":"Operational","Max_Voltag":500,"COUNTY":" ","CITY":" "}},{"type":"Feature","geometry":{"type":"Point","coordinates":[-121.316599524151,42.0066123014038]},"properties":{"Name":"Malin","Owner":"PG&E","Status":"Operational","Max_Voltag":500,"COUNTY":" ","CITY":" "}},{"type":"Feature","geometry":{"type":"Point","coordinates":[-121.39016226812,42.0798640125828]},"properties":{"Name":"Captain Jack","Owner":"Other","Status":"Operational","Max_Voltag":500,"COUNTY":" ","CITY":" "}},{"type":"Feature","geometry":{"type":"Point","coordinates":[-121.376902086193,38.0588660779745]},"properties":{"Name":"Eight Mile","Owner":"PG&E","Status":"Operational","Max_Voltag":230,"COUNTY":"San Joaquin County","CITY":"Unincorporated"}},{"type":"Feature","geometry":{"type":"Point","coordinates":[-121.966277236335,37.2537629595751]},"properties":{"Name":"Vasona","Owner":"PG&E","Status":"Operational","Max_Voltag":230,"COUNTY":"Santa Clara County","CITY":"Los Gatos"}},{"type":"Feature","geometry":{"type":"Point","coordinates":[-121.042955026832,37.6425447994113]},"properties":{"Name":"Rosemore B","Owner":"Other","Status":"Operational","Max_Voltag":230,"COUNTY":"Stanislaus County","CITY":"Unincorporated"}},{"type":"Feature","geometry":{"type":"Point","coordinates":[-122.713224756553,38.7662110061503]},"properties":{"Name":"Santa Rosa Geothermal","Owner":"Other","Status":"Operational","Max_Voltag":230,"COUNTY":"Lake County","CITY":"Unincorporated"}},{"type":"Feature","geometry":{"type":"Point","coordinates":[-122.711927620724,38.7658665996081]},"properties":{"Name":"Unknown","Owner":"PG&E","Status":"Operational","Max_Voltag":230,"COUNTY":"Lake County","CITY":"Unincorporated"}},{"type":"Feature","geometry":{"type":"Point","coordinates":[-121.616515220514,37.7672215167479]},"properties":{"Name":"Unknown","Owner":"Other","Status":"Operational","Max_Voltag":230,"COUNTY":"Alameda County","CITY":"Unincorporated"}},{"type":"Feature","geometry":{"type":"Point","coordinates":[-121.614449098954,37.7643368442124]},"properties":{"Name":"Flowind Corp","Owner":"Other","Status":"Operational","Max_Voltag":230,"COUNTY":"Alameda County","CITY":"Unincorporated"}},{"type":"Feature","geometry":{"type":"Point","coordinates":[-119.097366441611,35.3800011690786]},"properties":{"Name":"Kern Power","Owner":"PG&E","Status":"Operational","Max_Voltag":230,"COUNTY":"Kern County","CITY":"Bakersfield"}},{"type":"Feature","geometry":{"type":"Point","coordinates":[-118.055190114956,35.2368699454764]},"properties":{"Name":"Barren Ridge","Owner":"LADWP","Status":"Operational","Max_Voltag":230,"COUNTY":"Kern County","CITY":"Unincorporated"}},{"type":"Feature","geometry":{"type":"Point","coordinates":[-119.164094513641,35.3877193869207]},"properties":{"Name":"Renfro","Owner":"PG&E","Status":"Operational","Max_Voltag":230,"COUNTY":"Kern County","CITY":"Unincorporated"}},{"type":"Feature","geometry":{"type":"Point","coordinates":[-118.313850153686,35.1081287476113]},"properties":{"Name":"Arbwind","Owner":"SCE","Status":"Operational","Max_Voltag":230,"COUNTY":"Kern County","CITY":"Unincorporated"}},{"type":"Feature","geometry":{"type":"Point","coordinates":[-118.334546921014,35.0990864611245]},"properties":{"Name":"Unknown","Owner":"SCE","Status":"Operational","Max_Voltag":230,"COUNTY":"Kern County","CITY":"Unincorporated"}},{"type":"Feature","geometry":{"type":"Point","coordinates":[-121.830777062084,38.1273958569174]},"properties":{"Name":"High Winds","Owner":"Other","Status":"Operational","Max_Voltag":500,"COUNTY":"Solano County","CITY":"Unincorporated"}},{"type":"Feature","geometry":{"type":"Point","coordinates":[-121.733297507312,37.7424896768995]},"properties":{"Name":"Unknown","Owner":"PG&E","Status":"Operational","Max_Voltag":230,"COUNTY":"Alameda County","CITY":"Unincorporated"}},{"type":"Feature","geometry":{"type":"Point","coordinates":[-118.977545815367,35.014165098313]},"properties":{"Name":"Wind Gap","Owner":"Other","Status":"Operational","Max_Voltag":230,"COUNTY":"Kern County","CITY":"Unincorporated"}},{"type":"Feature","geometry":{"type":"Point","coordinates":[-118.176295101189,35.2469453079211]},"properties":{"Name":"Pine Tree Wind Farm","Owner":"LADWP","Status":"Operational","Max_Voltag":230,"COUNTY":"Kern County","CITY":"Unincorporated"}},{"type":"Feature","geometry":{"type":"Point","coordinates":[-116.911321320798,32.5741325813788]},"properties":{"Name":"Otay Mesa","Owner":"SDG&E","Status":"Operational","Max_Voltag":230,"COUNTY":"San Diego County","CITY":"Unincorporated"}},{"type":"Feature","geometry":{"type":"Point","coordinates":[-118.280191334612,34.1577919217754]},"properties":{"Name":"Air Way (Glendale)","Owner":"LADWP","Status":"Operational","Max_Voltag":230,"COUNTY":"Los Angeles County","CITY":"Glendale"}},{"type":"Feature","geometry":{"type":"Point","coordinates":[-122.263843662159,39.3652823116744]},"properties":{"Name":"Arkansas","Owner":"PG&E","Status":"Operational","Max_Voltag":230,"COUNTY":"Colusa County","CITY":"Unincorporated"}},{"type":"Feature","geometry":{"type":"Point","coordinates":[-122.583813770235,38.4428257857683]},"properties":{"Name":"Oakmont North","Owner":"PG&E","Status":"Operational","Max_Voltag":230,"COUNTY":"Sonoma County","CITY":"Santa Rosa"}},{"type":"Feature","geometry":{"type":"Point","coordinates":[-122.593343474264,38.4288565245889]},"properties":{"Name":"Oakmont South","Owner":"PG&E","Status":"Operational","Max_Voltag":230,"COUNTY":"Sonoma County","CITY":"Santa Rosa"}},{"type":"Feature","geometry":{"type":"Point","coordinates":[-122.209110477911,38.1381891898306]},"properties":{"Name":"Parkway","Owner":"PG&E","Status":"Operational","Max_Voltag":230,"COUNTY":"Solano County","CITY":"Vallejo"}},{"type":"Feature","geometry":{"type":"Point","coordinates":[-121.967680800965,37.7821214754921]},"properties":{"Name":"Technical Ecological Services","Owner":"PG&E","Status":"Operational","Max_Voltag":230,"COUNTY":"Contra Costa County","CITY":"Danville"}},{"type":"Feature","geometry":{"type":"Point","coordinates":[-121.981716942245,37.5028039042382]},"properties":{"Name":"Newark Distribution","Owner":"PG&E","Status":"Operational","Max_Voltag":230,"COUNTY":"Alameda County","CITY":"Fremont"}},{"type":"Feature","geometry":{"type":"Point","coordinates":[-121.010815797892,37.0414674324713]},"properties":{"Name":"Pacheco Wind Power","Owner":"PG&E","Status":"Operational","Max_Voltag":230,"COUNTY":"Merced County","CITY":"Unincorporated"}},{"type":"Feature","geometry":{"type":"Point","coordinates":[-121.796893400084,40.8902808605945]},"properties":{"Name":"Hatchet Ridge Wind","Owner":"PG&E","Status":"Operational","Max_Voltag":230,"COUNTY":"Shasta County","CITY":"Unincorporated"}},{"type":"Feature","geometry":{"type":"Point","coordinates":[-117.642375050204,33.6670068777246]},"properties":{"Name":"Viejo","Owner":"SCE","Status":"Operational","Max_Voltag":230,"COUNTY":"Orange County","CITY":"Lake Forest"}},{"type":"Feature","geometry":{"type":"Point","coordinates":[-115.451093424123,33.8096428780783]},"properties":{"Name":"Unknown","Owner":"Other","Status":"Operational","Max_Voltag":230,"COUNTY":"Riverside County","CITY":"Unincorporated"}},{"type":"Feature","geometry":{"type":"Point","coordinates":[-121.907853957054,37.7999449877625]},"properties":{"Name":"Tassajara","Owner":"PG&E","Status":"Operational","Max_Voltag":230,"COUNTY":"Contra Costa County","CITY":"Unincorporated"}},{"type":"Feature","geometry":{"type":"Point","coordinates":[-122.744444749343,38.7894687266166]},"properties":{"Name":"Calistoga 19","Owner":"PG&E","Status":"Operational","Max_Voltag":230,"COUNTY":"Lake County","CITY":"Unincorporated"}},{"type":"Feature","geometry":{"type":"Point","coordinates":[-118.096223057772,33.7629068926572]},"properties":{"Name":"Haynes","Owner":"LADWP","Status":"Operational","Max_Voltag":230,"COUNTY":"Los Angeles County","CITY":"Long Beach"}},{"type":"Feature","geometry":{"type":"Point","coordinates":[-122.756820003579,38.7900804812613]},"properties":{"Name":"Sonoma 3","Owner":"PG&E","Status":"Operational","Max_Voltag":230,"COUNTY":"Sonoma County","CITY":"Unincorporated"}},{"type":"Feature","geometry":{"type":"Point","coordinates":[-122.755226040126,38.7787309238671]},"properties":{"Name":"Grant 20","Owner":"PG&E","Status":"Operational","Max_Voltag":230,"COUNTY":"Sonoma County","CITY":"Unincorporated"}},{"type":"Feature","geometry":{"type":"Point","coordinates":[-122.781316457709,38.8238910326692]},"properties":{"Name":"Lake View","Owner":"PG&E","Status":"Operational","Max_Voltag":230,"COUNTY":"Sonoma County","CITY":"Unincorporated"}},{"type":"Feature","geometry":{"type":"Point","coordinates":[-122.767397747797,40.7922026493124]},"properties":{"Name":"Trinity","Owner":"WAPA","Status":"Operational","Max_Voltag":230,"COUNTY":"Trinity County","CITY":"Unincorporated"}},{"type":"Feature","geometry":{"type":"Point","coordinates":[-121.189801836707,38.6563235978087]},"properties":{"Name":"Sacramento Operations Ce","Owner":"WAPA","Status":"Operational","Max_Voltag":230,"COUNTY":"Sacramento County","CITY":"Folsom"}},{"type":"Feature","geometry":{"type":"Point","coordinates":[-118.280689787305,35.0348495611581]},"properties":{"Name":"Windhub","Owner":"SCE","Status":"Operational","Max_Voltag":500,"COUNTY":"Kern County","CITY":"Unincorporated"}},{"type":"Feature","geometry":{"type":"Point","coordinates":[-119.897107999586,36.7055769998974]},"properties":{"Name":"Unknown","Owner":" ","Status":"IN SERVICE","Max_Voltag":230,"COUNTY":"Fresno County","CITY":"Fresno"}},{"type":"Feature","geometry":{"type":"Point","coordinates":[-120.668821540384,38.3316482423438]},"properties":{"Name":"Electra Tap 2","Owner":" ","Status":"IN SERVICE","Max_Voltag":230,"COUNTY":"Amador County","CITY":"Unincorporated"}},{"type":"Feature","geometry":{"type":"Point","coordinates":[-120.669107069898,38.3315146877207]},"properties":{"Name":"Electra Tap 1","Owner":" ","Status":"IN SERVICE","Max_Voltag":230,"COUNTY":"Amador County","CITY":"Unincorporated"}},{"type":"Feature","geometry":{"type":"Point","coordinates":[-122.761533156651,38.767157868148]},"properties":{"Name":"Geysers Tap 2","Owner":" ","Status":"IN SERVICE","Max_Voltag":230,"COUNTY":"Sonoma County","CITY":"Unincorporated"}},{"type":"Feature","geometry":{"type":"Point","coordinates":[-115.717348444594,32.7345406921679]},"properties":{"Name":"Unknown","Owner":" ","Status":"IN SERVICE","Max_Voltag":230,"COUNTY":"Imperial County","CITY":"Unincorporated"}},{"type":"Feature","geometry":{"type":"Point","coordinates":[-119.919291096925,36.2322360519893]},"properties":{"Name":"Unknown","Owner":" ","Status":"IN SERVICE","Max_Voltag":230,"COUNTY":"Kings County","CITY":"Unincorporated"}},{"type":"Feature","geometry":{"type":"Point","coordinates":[-120.907096891906,37.4903224820389]},"properties":{"Name":"Walnut","Owner":" ","Status":"IN SERVICE","Max_Voltag":230,"COUNTY":"Stanislaus County","CITY":"Unincorporated"}},{"type":"Feature","geometry":{"type":"Point","coordinates":[-121.929858425297,40.9242884356744]},"properties":{"Name":"James Black Tap","Owner":" ","Status":"IN SERVICE","Max_Voltag":230,"COUNTY":"Shasta County","CITY":"Unincorporated"}},{"type":"Feature","geometry":{"type":"Point","coordinates":[-122.767182515048,38.781622949912]},"properties":{"Name":"Geysers Tap 7","Owner":" ","Status":"IN SERVICE","Max_Voltag":230,"COUNTY":"Sonoma County","CITY":"Unincorporated"}},{"type":"Feature","geometry":{"type":"Point","coordinates":[-122.767458084041,38.7867934490025]},"properties":{"Name":"Geysers Tap  8","Owner":" ","Status":"IN SERVICE","Max_Voltag":230,"COUNTY":"Sonoma County","CITY":"Unincorporated"}},{"type":"Feature","geometry":{"type":"Point","coordinates":[-121.930517695291,40.9243760840373]},"properties":{"Name":"Pit 5 Tap","Owner":" ","Status":"IN SERVICE","Max_Voltag":230,"COUNTY":"Shasta County","CITY":"Unincorporated"}}]}